{
  "type": "FeatureCollection",
  "features": [
    {
      "type": "Feature",
      "properties": {
        "norad_id": 66870,
        "name": "STARLINK-36114",
        "group": "last-30-days",
        "lat": 35.0794224712141,
        "lon": 173.9056888735122,
        "alt_km": 407.80705676569596,
        "timestamp": "2025-12-25T20:42:37.409116+00:00",
        "meta_object_name": "STARLINK-36114",
        "meta_object_id": "2025-281Y",
        "meta_epoch": "2025-12-25T08:00:01.000224",
        "meta_mean_motion": 15.53769111,
        "meta_eccentricity": 0.00014804,
        "meta_inclination": 43.0001,
        "meta_ra_of_asc_node": 45.9197,
        "meta_arg_of_pericenter": 272.2873,
        "meta_mean_anomaly": 126.5711,
        "meta_ephemeris_type": 0,
        "meta_classification_type": "U",
        "meta_norad_cat_id": 66870,
        "meta_element_set_no": 999,
        "meta_rev_at_epoch": 331,
        "meta_bstar": -0.033965917,
        "meta_mean_motion_dot": -0.01999195,
        "meta_mean_motion_ddot": 0,
        "tle_line1": "1 66870U 25281Y   25359.33334491 -.01999195  00000+0 -33966-1 0  9991",
        "tle_line2": "2 66870  43.0001  45.9197 0001480 272.2873 126.5711 15.53769111  3315"
      },
      "geometry": {
        "type": "Point",
        "coordinates": [
          173.9056888735122,
          35.0794224712141
        ]
      }
    },
    {
      "type": "Feature",
      "properties": {
        "norad_id": 66871,
        "name": "STARLINK-36095",
        "group": "last-30-days",
        "lat": 34.202767597605735,
        "lon": 175.97279636636065,
        "alt_km": 407.84463375798896,
        "timestamp": "2025-12-25T20:42:37.409128+00:00",
        "meta_object_name": "STARLINK-36095",
        "meta_object_id": "2025-281Z",
        "meta_epoch": "2025-12-25T08:00:01.000224",
        "meta_mean_motion": 15.53771238,
        "meta_eccentricity": 0.00014428,
        "meta_inclination": 43.0001,
        "meta_ra_of_asc_node": 45.9147,
        "meta_arg_of_pericenter": 267.3581,
        "meta_mean_anomaly": 133.4181,
        "meta_ephemeris_type": 0,
        "meta_classification_type": "U",
        "meta_norad_cat_id": 66871,
        "meta_element_set_no": 999,
        "meta_rev_at_epoch": 344,
        "meta_bstar": -0.034042949,
        "meta_mean_motion_dot": -0.0200337,
        "meta_mean_motion_ddot": 0,
        "tle_line1": "1 66871U 25281Z   25359.33334491 -.02003370  00000+0 -34043-1 0  9991",
        "tle_line2": "2 66871  43.0001  45.9147 0001442 267.3581 133.4181 15.53771238  3445"
      },
      "geometry": {
        "type": "Point",
        "coordinates": [
          175.97279636636065,
          34.202767597605735
        ]
      }
    },
    {
      "type": "Feature",
      "properties": {
        "norad_id": 66872,
        "name": "STARLINK-36082",
        "group": "last-30-days",
        "lat": 33.2913146073696,
        "lon": 177.99801235052854,
        "alt_km": 408.1499013174589,
        "timestamp": "2025-12-25T20:42:37.409138+00:00",
        "meta_object_name": "STARLINK-36082",
        "meta_object_id": "2025-281AA",
        "meta_epoch": "2025-12-25T08:00:01.000224",
        "meta_mean_motion": 15.53773879,
        "meta_eccentricity": 0.00016771,
        "meta_inclination": 43.0001,
        "meta_ra_of_asc_node": 45.9098,
        "meta_arg_of_pericenter": 270.285,
        "meta_mean_anomaly": 132.4057,
        "meta_ephemeris_type": 0,
        "meta_classification_type": "U",
        "meta_norad_cat_id": 66872,
        "meta_element_set_no": 999,
        "meta_rev_at_epoch": 331,
        "meta_bstar": -0.034077763,
        "meta_mean_motion_dot": -0.0200552,
        "meta_mean_motion_ddot": 0,
        "tle_line1": "1 66872U 25281AA  25359.33334491 -.02005520  00000+0 -34078-1 0  9999",
        "tle_line2": "2 66872  43.0001  45.9098 0001677 270.2850 132.4057 15.53773879  3313"
      },
      "geometry": {
        "type": "Point",
        "coordinates": [
          177.99801235052854,
          33.2913146073696
        ]
      }
    },
    {
      "type": "Feature",
      "properties": {
        "norad_id": 66873,
        "name": "STARLINK-36128",
        "group": "last-30-days",
        "lat": 30.368955632741255,
        "lon": -176.1774524184911,
        "alt_km": 408.5233399947956,
        "timestamp": "2025-12-25T20:42:37.409149+00:00",
        "meta_object_name": "STARLINK-36128",
        "meta_object_id": "2025-281AB",
        "meta_epoch": "2025-12-25T08:00:01.000224",
        "meta_mean_motion": 15.53772914,
        "meta_eccentricity": 0.0001596,
        "meta_inclination": 42.9995,
        "meta_ra_of_asc_node": 45.8946,
        "meta_arg_of_pericenter": 271.8241,
        "meta_mean_anomaly": 136.6197,
        "meta_ephemeris_type": 0,
        "meta_classification_type": "U",
        "meta_norad_cat_id": 66873,
        "meta_element_set_no": 999,
        "meta_rev_at_epoch": 344,
        "meta_bstar": -0.034086276,
        "meta_mean_motion_dot": -0.02005855,
        "meta_mean_motion_ddot": 0,
        "tle_line1": "1 66873U 25281AB  25359.33334491 -.02005855  00000+0 -34086-1 0  9990",
        "tle_line2": "2 66873  42.9995  45.8946 0001596 271.8241 136.6197 15.53772914  3440"
      },
      "geometry": {
        "type": "Point",
        "coordinates": [
          -176.1774524184911,
          30.368955632741255
        ]
      }
    },
    {
      "type": "Feature",
      "properties": {
        "norad_id": 66874,
        "name": "STARLINK-36129",
        "group": "last-30-days",
        "lat": 32.345651110054966,
        "lon": 179.98469758425017,
        "alt_km": 408.3215034972727,
        "timestamp": "2025-12-25T20:42:37.409159+00:00",
        "meta_object_name": "STARLINK-36129",
        "meta_object_id": "2025-281AC",
        "meta_epoch": "2025-12-25T08:00:01.000224",
        "meta_mean_motion": 15.53769022,
        "meta_eccentricity": 0.00016083,
        "meta_inclination": 43.0003,
        "meta_ra_of_asc_node": 45.9048,
        "meta_arg_of_pericenter": 277.365,
        "meta_mean_anomaly": 127.2425,
        "meta_ephemeris_type": 0,
        "meta_classification_type": "U",
        "meta_norad_cat_id": 66874,
        "meta_element_set_no": 999,
        "meta_rev_at_epoch": 344,
        "meta_bstar": -0.033924951,
        "meta_mean_motion_dot": -0.01997108,
        "meta_mean_motion_ddot": 0,
        "tle_line1": "1 66874U 25281AC  25359.33334491 -.01997108  00000+0 -33925-1 0  9992",
        "tle_line2": "2 66874  43.0003  45.9048 0001608 277.3650 127.2425 15.53769022  3442"
      },
      "geometry": {
        "type": "Point",
        "coordinates": [
          179.98469758425017,
          32.345651110054966
        ]
      }
    },
    {
      "type": "Feature",
      "properties": {
        "norad_id": 66875,
        "name": "STARLINK-36053",
        "group": "last-30-days",
        "lat": 29.338345033638458,
        "lon": -174.31562412684266,
        "alt_km": 408.73484297176674,
        "timestamp": "2025-12-25T20:42:37.409168+00:00",
        "meta_object_name": "STARLINK-36053",
        "meta_object_id": "2025-281AD",
        "meta_epoch": "2025-12-25T08:00:01.000224",
        "meta_mean_motion": 15.53770973,
        "meta_eccentricity": 0.00016588,
        "meta_inclination": 42.9998,
        "meta_ra_of_asc_node": 45.8891,
        "meta_arg_of_pericenter": 274.409,
        "meta_mean_anomaly": 135.9521,
        "meta_ephemeris_type": 0,
        "meta_classification_type": "U",
        "meta_norad_cat_id": 66875,
        "meta_element_set_no": 999,
        "meta_rev_at_epoch": 344,
        "meta_bstar": -0.034023813,
        "meta_mean_motion_dot": -0.02002477,
        "meta_mean_motion_ddot": 0,
        "tle_line1": "1 66875U 25281AD  25359.33334491 -.02002477  00000+0 -34024-1 0  9991",
        "tle_line2": "2 66875  42.9998  45.8891 0001658 274.4090 135.9521 15.53770973  3440"
      },
      "geometry": {
        "type": "Point",
        "coordinates": [
          -174.31562412684266,
          29.338345033638458
        ]
      }
    },
    {
      "type": "Feature",
      "properties": {
        "norad_id": 66876,
        "name": "STARLINK-35702",
        "group": "last-30-days",
        "lat": 31.36861667343698,
        "lon": -178.071650137179,
        "alt_km": 408.29289246993903,
        "timestamp": "2025-12-25T20:42:37.409178+00:00",
        "meta_object_name": "STARLINK-35702",
        "meta_object_id": "2025-281AE",
        "meta_epoch": "2025-12-25T06:00:04.000320",
        "meta_mean_motion": 15.54167097,
        "meta_eccentricity": 0.00013036,
        "meta_inclination": 42.9996,
        "meta_ra_of_asc_node": 46.3886,
        "meta_arg_of_pericenter": 263.2968,
        "meta_mean_anomaly": 36.6635,
        "meta_ephemeris_type": 0,
        "meta_classification_type": "U",
        "meta_norad_cat_id": 66876,
        "meta_element_set_no": 999,
        "meta_rev_at_epoch": 343,
        "meta_bstar": -0.034324003,
        "meta_mean_motion_dot": -0.02044551,
        "meta_mean_motion_ddot": 0,
        "tle_line1": "1 66876U 25281AE  25359.25004630 -.02044551  00000+0 -34324-1 0  9994",
        "tle_line2": "2 66876  42.9996  46.3886 0001303 263.2968  36.6635 15.54167097  3436"
      },
      "geometry": {
        "type": "Point",
        "coordinates": [
          -178.071650137179,
          31.36861667343698
        ]
      }
    }
  ]
}